# From MPEC 2022-TA0
C/2018 U1 (Lemmon),h,11/03.1721/2021,108.3138,75.4882,180.4772,1.001541,4.992996,2000,5.0,4.0
# From MPC114604
C/2018 V1 (Machholz-Fujikawa-Iwamoto),h,12/02.8259/2018,144.0905,129.0377,89.0772,1.000350,0.390061,2000,12.0,4.0
# From MPC115884
C/2018 V2 (ATLAS),e,159.1675,357.0773,319.0069,25.05752,0.0078577,0.90086354,11.5632,12/06.0/2022,2000,g 15.0,4.0
# From MPC114604
P/2018 VN2 (Leonard),e,18.2633,226.4560,138.8436,4.063930,0.1203053,0.47892787,197.6293,12/06.0/2022,2000,g 15.0,4.0
# From MPEC 2022-VC5
A/2018 V3,e,164.9663,308.6937,3.6038,127.1634,0.0006873,0.98945459,0.0000,09/09.1211/2019,2000,g 15.7,2.0
# From MPEC 2022-M21
C/2018 V4 (Africano),e,69.0219,78.2893,359.9402,200.9603,0.0003460,0.98410196,0.0000,03/01.4963/2019,2000,g 12.5,4.0
# From MPEC 2021-P47
P/2018 V5 (Trujillo-Sheppard),e,10.5890,171.2865,260.6617,8.959693,0.0367506,0.47547540,56.0226,12/06.0/2022,2000,g 12.5,4.0
# From MPEC 2021-P47
C/2018 W1 (Catalina),e,83.3666,233.6535,251.2141,21.68140,0.0097628,0.93731322,12.7321,12/06.0/2022,2000,g 15.5,2.0
# From MPEC 2021-P47
C/2018 W2 (Africano),h,09/05.3462/2019,116.6263,181.8164,158.0587,1.000549,1.460266,2000,9.5,4.0
# From MPEC 2022-Q17
A/2018 W3,e,104.8146,251.6703,313.9668,689.0956,0.0000545,0.99377359,0.0000,04/13.0542/2021,2000,g 10.5,2.0
# From MPC119996
C/2018 X2 (Fitzsimmons),e,23.0713,340.8162,161.9573,140.0264,0.0005948,0.98484794,0.0000,07/08.2209/2019,2000,g 12.0,4.0
# From MPC114604
C/2018 X3 (PANSTARRS),e,43.4040,78.8352,359.7407,12.37259,0.0226471,0.78246586,32.5203,12/06.0/2022,2000,g 14.5,4.0
# From MPC118842
C/2018 Y1 (Iwamoto),e,160.4069,147.4938,357.9261,131.3052,0.0006551,0.99022441,0.0000,02/06.0905/2019,2000,g 11.5,4.0
# From MPC114605
P/2018 Y2 (Africano),e,11.6836,297.2163,162.2424,7.453615,0.0484344,0.47912079,69.4699,12/06.0/2022,2000,g 11.5,4.0
# From MPC114605
P/2019 A1 (PANSTARRS),e,13.7496,312.2716,150.7089,5.116928,0.0851511,0.56898759,129.1811,12/06.0/2022,2000,g 16.0,4.0
# From MPEC 2021-P47
P/2019 A2 (ATLAS),e,14.8605,139.4533,323.8631,5.714719,0.0721459,0.38199279,106.5334,12/06.0/2022,2000,g 10.5,4.0
# From MPEC 2022-M21
P/2019 A3 (PANSTARRS),e,15.3750,31.2936,325.6353,3.144652,0.1767442,0.26609154,280.0327,12/06.0/2022,2000,g 16.0,4.0
# From MPEC 2022-L66
P/2019 A4 (PANSTARRS),e,13.3064,119.2429,342.9800,2.613376,0.2332928,0.08706936,339.6624,12/06.0/2022,2000,g 15.0,4.0
# From MPEC 2021-P47
C/2019 A5 (PANSTARRS),e,67.5543,146.6141,355.8206,21.49637,0.0098891,0.70619096,12.6399,12/06.0/2022,2000,g  9.5,4.0
# From MPC114605
P/2019 A6 (Lemmon-PANSTARRS),e,33.2593,280.2081,156.1831,5.358037,0.0794686,0.63977548,123.8994,12/06.0/2022,2000,g 16.0,4.0
# From MPC115884
P/2019 A8 (PANSTARRS),e,2.1900,114.4455,65.9798,4.275245,0.1114969,0.24227178,178.2526,12/06.0/2022,2000,g 16.0,4.0
# From MPC118842
C/2019 A9 (PANSTARRS),e,84.2318,278.4007,237.9246,39.15434,0.0040229,0.96345401,4.9442,12/06.0/2022,2000,g 15.0,4.0
# From MPEC 2022-L66
C/2019 B1 (Africano),e,123.3967,290.3877,174.7752,138.5025,0.0006047,0.98846804,0.0000,03/18.8449/2019,2000,g 16.0,4.0
# From MPC115885
P/2019 B2 (Groeller),e,17.0218,175.7451,1.0546,3.910610,0.1274492,0.36179054,163.7149,12/06.0/2022,2000,g 14.5,4.0
# From MPEC 2022-WQ9
C/2019 B3 (PANSTARRS),h,01/20.4320/2021,66.5358,358.4361,263.9609,1.000410,6.824814,2000,5.5,4.0
# From MPEC 2021-P47
C/2019 C1 (ATLAS),e,36.0487,212.3901,319.0982,650.6463,0.0000594,0.98989075,0.0000,05/04.4880/2020,2000,g 10.0,4.0
# From MPEC 2022-O08
C/2019 D1 (Flewelling),e,34.0191,231.6710,70.6594,142.9059,0.0005769,0.98891243,0.0000,05/11.4149/2019,2000,g 13.0,4.0
# From MPEC 2022-WQ9
C/2019 E3 (ATLAS),h,11/14.6719/2023,84.2973,347.2512,280.6752,1.000348,10.313163,2000,2.5,4.0
# From MPEC 2022-WQ9
C/2019 F1 (ATLAS-Africano),h,06/23.1049/2021,54.2025,38.6835,251.2397,1.003557,3.598667,2000,5.5,4.0
# From MPEC 2021-P47
C/2019 F2 (ATLAS),e,19.2540,175.4962,11.5916,16.64088,0.0145191,0.86504610,17.2031,12/06.0/2022,2000,g 12.0,4.0
# From MPEC 2021-P47
A/2019 G2,e,159.2121,208.1577,82.6066,464.0390,0.0000986,0.99505869,0.0000,12/08.9142/2019,2000,g 16.5,2.0
# From MPEC 2022-VC5
A/2019 G3,e,156.8091,49.8809,161.9323,17.21557,0.0137982,0.83443125,20.1821,12/06.0/2022,2000,g 17.1,2.0
# From MPEC 2022-P82
C/2019 G4 (PANSTARRS),h,09/15.9366/2018,138.3630,130.4571,287.7963,1.001902,5.850742,2000,9.5,4.0
# From MPC114607
P/2019 GG21 (PANSTARRS),e,6.0853,340.5619,208.6060,7.470222,0.0482729,0.47194292,63.0317,12/06.0/2022,2000,g 12.0,4.0
# From MPEC 2022-M21
C/2019 H1 (NEOWISE),e,104.4826,269.2562,19.3482,249.0655,0.0002507,0.99258991,0.0000,04/27.9916/2019,2000,g 15.5,4.0
# From MPEC 2022-O08
C/2019 J1 (Lemmon),e,24.5440,98.1421,167.7712,68.38010,0.0017430,0.96366874,2.3319,12/06.0/2022,2000,g 12.0,4.0
# From MPEC 2021-R75
C/2019 J2 (Palomar),e,105.2306,25.5569,98.7106,161.6468,0.0004796,0.98933891,0.0000,07/20.1614/2019,2000,g 13.0,4.0
# From MPC117071
C/2019 J3 (ATLAS),h,08/02.3485/2019,131.3677,270.5879,16.6194,1.000687,2.372498,2000,13.5,4.0
# From MPEC 2022-M21
C/2019 JU6 (ATLAS),e,148.3300,21.7630,95.0110,618644,0.0000000,0.99999669,0.0000,06/01.6602/2019,2000,g 14.5,4.0
# From MPEC 2022-O08
C/2019 K1 (ATLAS),e,87.0718,73.3494,265.7186,23339,0.0000003,0.99991374,0.0000,02/12.8582/2020,2000,g 10.0,4.0
# From MPC119997
C/2019 K4 (Ye),e,105.2966,180.1412,139.8492,1340,0.0000201,0.99830852,0.0000,06/15.7512/2019,2000,g 12.5,4.0
# From MPEC 2021-P47
C/2019 K5 (Young),e,15.3193,177.1265,175.1133,166.9279,0.0004570,0.98777749,0.0000,06/23.0676/2019,2000,g 13.0,4.0
# From MPEC 2021-P47
C/2019 K6 (PANSTARRS),e,132.3826,42.9879,187.6112,1723,0.0000138,0.99772200,0.0000,05/20.1309/2020,2000,g 11.5,4.0
# From MPEC 2022-TA0
C/2019 K7 (Smith),h,06/17.5387/2020,103.5375,307.9526,27.3932,1.000800,4.478063,2000,6.0,4.0
# From MPEC 2021-R75
C/2019 K8 (ATLAS),e,93.1628,291.0368,85.3845,2732,0.0000069,0.99883130,0.0000,07/21.7792/2019,2000,g 11.5,4.0
# From MPC118095
C/2019 L1 (PANSTARRS),e,9.9824,254.4294,50.0452,9.842446,0.0319190,0.70558985,38.7186,12/06.0/2022,2000,g 13.5,4.0
# From MPC115886
C/2019 L2 (NEOWISE),e,152.2111,12.5481,18.8259,24.98943,0.0078899,0.93494999,10.6057,12/06.0/2022,2000,g 16.0,4.0
# From MPEC 2022-UY9
P/2019 LD2 (ATLAS),e,11.6226,179.5967,120.7388,5.228705,0.0824352,0.12688490,82.2495,12/06.0/2022,2000,g  8.5,4.0
# From MPEC 2022-WQ9
C/2019 L3 (ATLAS),h,01/09.6305/2022,48.3532,290.7841,171.6129,1.001944,3.554412,2000,4.5,4.0
# From MPC118095
C/2019 LB7 (Kleyna),e,164.2918,3.8841,336.5365,34.61614,0.0048393,0.92808725,6.5365,12/06.0/2022,2000,g 17.0,4.0
# From MPEC 2022-O08
P/2019 M2 (ATLAS),e,12.2739,307.6144,332.5641,3.028434,0.1870152,0.64756115,236.1804,12/06.0/2022,2000,g 21.2,4.0
# From MPC118095
C/2019 M3 (ATLAS),e,99.4986,154.9190,87.8868,10506,0.0000009,0.99976955,0.0000,01/01.2346/2019,2000,g 12.2,4.0
# From MPEC 2022-R68
C/2019 N1 (ATLAS),e,82.4295,13.5737,193.4330,1996,0.0000111,0.99914541,0.0000,12/01.4985/2020,2000,g  7.5,4.0
# From MPEC 2022-A21
C/2019 NJ3 (Lemmon),h,10/22.8499/2020,99.4281,142.4643,246.9052,1.002308,4.362747,2000,9.0,4.0
# From MPEC 2022-VC5
A/2019 O2,e,93.3039,48.2675,129.6501,57.72533,0.0022473,0.83226155,359.7248,12/06.0/2022,2000,g  9.5,2.0
# From MPEC 2022-WQ9
C/2019 O3 (Palomar),h,03/09.4359/2021,89.8198,300.4088,60.1213,1.004255,8.820689,2000,3.5,4.0
# From MPEC 2021-P47
A/2019 O4,e,115.0952,354.9081,61.8983,33.22624,0.0051461,0.89025380,5.2970,12/06.0/2022,2000,g 15.5,2.0
# From MPEC 2021-N06
C/2019 Q1 (Lemmon),h,07/20.5010/2020,155.7277,42.4644,56.1737,1.000414,5.001652,2000,8.5,4.0
# From MPC117072
A/2019 Q2,e,159.0317,188.0048,176.3652,57.64650,0.0022519,0.97810952,0.0000,07/22.0309/2019,2000,g 18.0,2.0
# From MPC117072
C/2019 Q3 (PANSTARRS),h,08/21.4916/2018,65.5329,151.3313,152.7845,1.002795,7.264199,2000,8.5,4.0
# From MPC117072
P/2019 S2 (PANSTARRS),e,10.4673,93.1403,217.1374,4.741754,0.0954543,0.20598118,131.9847,12/06.0/2022,2000,g 13.5,4.0
# From MPEC 2022-CN4
P/2019 S3 (PANSTARRS),e,8.6939,150.1570,213.0370,3.415369,0.1561520,0.47123068,186.9141,12/06.0/2022,2000,g 18.3,4.0
# From MPEC 2021-S45
C/2019 S4 (Lemmon),e,92.0682,63.1497,71.3732,232.1776,0.0002786,0.98517270,0.0000,04/07.9605/2020,2000,g 11.0,4.0
# From MPEC 2022-L66
A/2019 T1,e,120.8775,6.9446,91.0733,38.67007,0.0040987,0.88926959,2.8292,12/06.0/2022,2000,g 13.0,2.0
# From MPEC 2022-L66
C/2019 T2 (Lemmon),e,111.4827,155.6468,239.4271,3437,0.0000049,0.99922996,0.0000,04/22.4662/2021,2000,g  9.0,4.0
# From MPEC 2022-WQ9
C/2019 T3 (ATLAS),e,121.8466,139.5316,112.4295,3065,0.0000058,0.99805866,0.0000,03/04.0651/2021,2000,g  6.8,4.0
# From MPEC 2022-WQ9
C/2019 T4 (ATLAS),e,53.6316,199.9391,351.1852,978.0045,0.0000322,0.99566232,0.0000,06/09.0368/2022,2000,g  5.0,4.0
# From MPEC 2021-P47
P/2019 T5 (ATLAS),e,33.4763,247.6334,189.5618,7.996176,0.0435894,0.80942027,53.2842,12/06.0/2022,2000,g 15.0,4.0
# From MPEC 2021-P47
P/2019 T6 (PANSTARRS),e,18.6997,71.2358,328.9716,5.436837,0.0777472,0.62302076,87.3581,12/06.0/2022,2000,g 15.5,4.0
# From MPC118096
P/2019 U4 (PANSTARRS),e,11.7001,200.0007,181.0147,3.520276,0.1492241,0.47599037,175.1485,12/06.0/2022,2000,g 19.0,4.0
# From MPEC 2022-WQ9
C/2019 U5 (PANSTARRS),h,03/29.8772/2023,113.5212,2.6371,181.5031,1.001505,3.624140,2000,4.5,4.0
# From MPEC 2022-H04
C/2019 U6 (Lemmon),e,60.9850,235.7438,329.6018,350.9672,0.0001499,0.99739594,0.0000,06/18.5120/2020,2000,g 10.0,4.0
# From MPEC 2022-N37
C/2019 V1 (Borisov),e,61.8938,83.1737,51.1656,1492,0.0000171,0.99792470,0.0000,07/16.3756/2020,2000,g 11.0,4.0
# From MPEC 2022-L66
P/2019 V2 (Groeller),e,11.8083,189.1854,335.8097,7.501751,0.0479689,0.33112267,37.3736,12/06.0/2022,2000,g 10.0,4.0
# From MPC119998
P/2019 W1 (PANSTARRS),e,23.4737,35.3771,18.7031,4.549284,0.1015756,0.26697467,132.7980,12/06.0/2022,2000,g 12.9,4.0
# From MPEC 2021-P47
P/2019 X1 (Pruyne),e,10.2494,43.6666,36.7880,6.173511,0.0642548,0.30347657,79.2475,12/06.0/2022,2000,g 10.4,4.0
# From MPC119999
